{
    "links": {
        "self": "http://www.neowsapp.com/rest/v1/neo/3757874?api_key=iIulBulltgU6a56xZRHN4H3l9WmuAYTsLGpBGhQ2"
    },
    "id": "3757874",
    "neo_reference_id": "3757874",
    "name": "(2016 QZ10)",
    "designation": "2016 QZ10",
    "nasa_jpl_url": "http://ssd.jpl.nasa.gov/sbdb.cgi?sstr=3757874",
    "absolute_magnitude_h": 23.1,
    "estimated_diameter": {
        "kilometers": {
            "estimated_diameter_min": 0.063760979,
            "estimated_diameter_max": 0.1425738833
        },
        "meters": {
            "estimated_diameter_min": 63.7609789875,
            "estimated_diameter_max": 142.5738833281
        },
        "miles": {
            "estimated_diameter_min": 0.0396192233,
            "estimated_diameter_max": 0.0885912765
        },
        "feet": {
            "estimated_diameter_min": 209.1895703015,
            "estimated_diameter_max": 467.7620993781
        }
    },
    "is_potentially_hazardous_asteroid": false,
    "close_approach_data": [
        {
            "close_approach_date": "2016-08-28",
            "close_approach_date_full": "2016-Aug-28 22:23",
            "epoch_date_close_approach": 1472422980000,
            "relative_velocity": {
                "kilometers_per_second": "2.2940529362",
                "kilometers_per_hour": "8258.5905702822",
                "miles_per_hour": "5131.5670129623"
            },
            "miss_distance": {
                "astronomical": "0.2724420718",
                "lunar": "105.9799659302",
                "kilometers": "40756753.639667066",
                "miles": "25325072.3724788708"
            },
            "orbiting_body": "Earth"
        }
    ],
    "orbital_data": {
        "orbit_id": "9",
        "orbit_determination_date": "2017-04-06 08:24:24",
        "first_observation_date": "2016-08-27",
        "last_observation_date": "2016-10-03",
        "data_arc_in_days": 37,
        "observations_used": 29,
        "orbit_uncertainty": "7",
        "minimum_orbit_intersection": ".270035",
        "jupiter_tisserand_invariant": "3.597",
        "epoch_osculation": "2459000.5",
        "eccentricity": ".4043049500450505",
        "semi_major_axis": "2.146643986454453",
        "inclination": "3.068539738444971",
        "ascending_node_longitude": "357.6400039577694",
        "orbital_period": "1148.784224626806",
        "perihelion_distance": "1.278745196746477",
        "perihelion_argument": "336.6617236626214",
        "aphelion_distance": "3.014542776162428",
        "perihelion_time": "2458773.284154192510",
        "mean_anomaly": "71.20371496855218",
        "mean_motion": ".3133747768141139",
        "equinox": "J2000",
        "orbit_class": {
            "orbit_class_type": "AMO",
            "orbit_class_description": "Near-Earth asteroid orbits similar to that of 1221 Amor",
            "orbit_class_range": "1.017 AU < q (perihelion) < 1.3 AU"
        }
    },
    "is_sentry_object": false
}